GLOBALSTAR M035 [-]     
1 25851U 99037A   23358.96038326 -.00000067  00000+0 -14352-3 0  9999
2 25851  51.9908 179.7050 0013639 179.9705 351.0961 11.04528145 36560
GLOBALSTAR M032 [-]     
1 25852U 99037B   23358.38621324 -.00000017  00000+0  15841-2 0  9999
2 25852  51.9978  43.5000 0008301 335.3116  24.7285 11.19047410 74242
GLOBALSTAR M051 [-]     
1 25853U 99037C   23358.92416408 -.00000036  00000+0  88129-3 0  9996
2 25853  51.9792 264.1970 0001774 356.2129   3.8668 11.42194594 70653
GLOBALSTAR M030 [-]     
1 25854U 99037D   23358.67121468 -.00000030  00000+0  96173-3 0  9990
2 25854  51.9880 105.2761 0005180 146.7672 213.3471 11.55086341 87589
GLOBALSTAR M048 [-]     
1 25872U 99041A   23358.80652632 -.00000044  00000+0  70734-3 0  9992
2 25872  51.9330 178.6152 0012516 334.7732 123.7571 11.33842437 63686
GLOBALSTAR M026 [-]     
1 25873U 99041B   23358.91803433 -.00000082  00000+0 -66356-3 0  9990
2 25873  52.0031 303.4563 0001943  66.9166  31.2158 11.06833223 88660
GLOBALSTAR M043 [-]     
1 25874U 99041C   23358.93878772 -.00000093  00000+0 -74973-3 0  9997
2 25874  51.9405 264.4155 0013575 108.3538 332.9097 11.25673834 62032
GLOBALSTAR M028 [-]     
1 25875U 99041D   23358.29840581 -.00000011  00000+0  57592-3 0  9991
2 25875  51.9649   5.8496 0063409 337.0383  22.7648 12.50547300122500
